{
  "type": "FeatureCollection",
  "features": [
    {
      "type": "Feature",
      "properties": {
        "norad_id": 35744,
        "name": "IRIDIUM 33 DEB",
        "group": "iridium-33-debris",
        "lat": -76.19542000344981,
        "lon": 161.91420785090403,
        "alt_km": 657.1624455494375,
        "timestamp": "2025-12-09T18:55:17.617271+00:00",
        "meta_object_name": "IRIDIUM 33 DEB",
        "meta_object_id": "1997-051RX",
        "meta_epoch": "2025-12-09T06:19:46.714368",
        "meta_mean_motion": 14.70917614,
        "meta_eccentricity": 0.0019844,
        "meta_inclination": 86.3295,
        "meta_ra_of_asc_node": 327.0065,
        "meta_arg_of_pericenter": 205.1903,
        "meta_mean_anomaly": 154.8347,
        "meta_ephemeris_type": 0,
        "meta_classification_type": "U",
        "meta_norad_cat_id": 35744,
        "meta_element_set_no": 999,
        "meta_rev_at_epoch": 87280,
        "meta_bstar": 0.0015728,
        "meta_mean_motion_dot": 9.685e-05,
        "meta_mean_motion_ddot": 0,
        "tle_line1": "1 35744U 97051RX  25343.26373512  .00009685  00000+0  15728-2 0  9993",
        "tle_line2": "2 35744  86.3295 327.0065 0019844 205.1903 154.8347 14.70917614872804"
      },
      "geometry": {
        "type": "Point",
        "coordinates": [
          161.91420785090403,
          -76.19542000344981
        ]
      }
    },
    {
      "type": "Feature",
      "properties": {
        "norad_id": 35797,
        "name": "IRIDIUM 33 DEB",
        "group": "iridium-33-debris",
        "lat": -40.162971893755085,
        "lon": 154.4289149318089,
        "alt_km": 623.4991023391658,
        "timestamp": "2025-12-09T18:55:17.617282+00:00",
        "meta_object_name": "IRIDIUM 33 DEB",
        "meta_object_id": "1997-051SF",
        "meta_epoch": "2025-12-07T17:20:13.337376",
        "meta_mean_motion": 14.82554733,
        "meta_eccentricity": 0.00125987,
        "meta_inclination": 86.336,
        "meta_ra_of_asc_node": 332.2775,
        "meta_arg_of_pericenter": 164.89,
        "meta_mean_anomaly": 195.2701,
        "meta_ephemeris_type": 0,
        "meta_classification_type": "U",
        "meta_norad_cat_id": 35797,
        "meta_element_set_no": 999,
        "meta_rev_at_epoch": 87266,
        "meta_bstar": 0.0031386009,
        "meta_mean_motion_dot": 0.0002535,
        "meta_mean_motion_ddot": 0,
        "tle_line1": "1 35797U 97051SF  25341.72237659  .00025350  00000+0  31386-2 0  9996",
        "tle_line2": "2 35797  86.3360 332.2775 0012598 164.8900 195.2701 14.82554733872667"
      },
      "geometry": {
        "type": "Point",
        "coordinates": [
          154.4289149318089,
          -40.162971893755085
        ]
      }
    },
    {
      "type": "Feature",
      "properties": {
        "norad_id": 35806,
        "name": "IRIDIUM 33 DEB",
        "group": "iridium-33-debris",
        "lat": 74.64787864050015,
        "lon": 35.39605257974133,
        "alt_km": 683.5068690188937,
        "timestamp": "2025-12-09T18:55:17.617292+00:00",
        "meta_object_name": "IRIDIUM 33 DEB",
        "meta_object_id": "1997-051SQ",
        "meta_epoch": "2025-12-06T09:49:43.789440",
        "meta_mean_motion": 14.5725267,
        "meta_eccentricity": 0.0016158,
        "meta_inclination": 86.344,
        "meta_ra_of_asc_node": 23.4162,
        "meta_arg_of_pericenter": 94.3917,
        "meta_mean_anomaly": 265.9138,
        "meta_ephemeris_type": 0,
        "meta_classification_type": "U",
        "meta_norad_cat_id": 35806,
        "meta_element_set_no": 999,
        "meta_rev_at_epoch": 86232,
        "meta_bstar": 0.0020153904,
        "meta_mean_motion_dot": 9.149e-05,
        "meta_mean_motion_ddot": 0,
        "tle_line1": "1 35806U 97051SQ  25340.40953460  .00009149  00000+0  20154-2 0  9995",
        "tle_line2": "2 35806  86.3440  23.4162 0016158  94.3917 265.9138 14.57252670862325"
      },
      "geometry": {
        "type": "Point",
        "coordinates": [
          35.39605257974133,
          74.64787864050015
        ]
      }
    },
    {
      "type": "Feature",
      "properties": {
        "norad_id": 35809,
        "name": "IRIDIUM 33 DEB",
        "group": "iridium-33-debris",
        "lat": -65.02931624535388,
        "lon": 164.61991429308947,
        "alt_km": 643.8677569285137,
        "timestamp": "2025-12-09T18:55:17.617302+00:00",
        "meta_object_name": "IRIDIUM 33 DEB",
        "meta_object_id": "1997-051ST",
        "meta_epoch": "2025-12-06T06:48:24.450912",
        "meta_mean_motion": 14.75488502,
        "meta_eccentricity": 0.00096585,
        "meta_inclination": 86.3276,
        "meta_ra_of_asc_node": 338.2877,
        "meta_arg_of_pericenter": 270.8385,
        "meta_mean_anomaly": 89.1727,
        "meta_ephemeris_type": 0,
        "meta_classification_type": "U",
        "meta_norad_cat_id": 35809,
        "meta_element_set_no": 999,
        "meta_rev_at_epoch": 86712,
        "meta_bstar": 0.0029776157,
        "meta_mean_motion_dot": 0.00020329,
        "meta_mean_motion_ddot": 0,
        "tle_line1": "1 35809U 97051ST  25340.28361633  .00020329  00000+0  29776-2 0  9991",
        "tle_line2": "2 35809  86.3276 338.2877 0009658 270.8385  89.1727 14.75488502867120"
      },
      "geometry": {
        "type": "Point",
        "coordinates": [
          164.61991429308947,
          -65.02931624535388
        ]
      }
    },
    {
      "type": "Feature",
      "properties": {
        "norad_id": 35846,
        "name": "IRIDIUM 33 DEB",
        "group": "iridium-33-debris",
        "lat": 10.917065089212636,
        "lon": 60.80182311148375,
        "alt_km": 762.6562212691806,
        "timestamp": "2025-12-09T18:55:17.617316+00:00",
        "meta_object_name": "IRIDIUM 33 DEB",
        "meta_object_id": "1997-051SW",
        "meta_epoch": "2025-12-08T22:54:05.598144",
        "meta_mean_motion": 14.43136324,
        "meta_eccentricity": 0.0018559,
        "meta_inclination": 86.3751,
        "meta_ra_of_asc_node": 60.4571,
        "meta_arg_of_pericenter": 182.7319,
        "meta_mean_anomaly": 177.3783,
        "meta_ephemeris_type": 0,
        "meta_classification_type": "U",
        "meta_norad_cat_id": 35846,
        "meta_element_set_no": 999,
        "meta_rev_at_epoch": 71274,
        "meta_bstar": 0.00082509,
        "meta_mean_motion_dot": 2.794e-05,
        "meta_mean_motion_ddot": 0,
        "tle_line1": "1 35846U 97051SW  25342.95423146  .00002794  00000+0  82509-3 0  9996",
        "tle_line2": "2 35846  86.3751  60.4571 0018559 182.7319 177.3783 14.43136324712748"
      },
      "geometry": {
        "type": "Point",
        "coordinates": [
          60.80182311148375,
          10.917065089212636
        ]
      }
    },
    {
      "type": "Feature",
      "properties": {
        "norad_id": 35848,
        "name": "IRIDIUM 33 DEB",
        "group": "iridium-33-debris",
        "lat": 13.232006314499278,
        "lon": -163.39089033754306,
        "alt_km": 631.3739997878347,
        "timestamp": "2025-12-09T18:55:17.617326+00:00",
        "meta_object_name": "IRIDIUM 33 DEB",
        "meta_object_id": "1997-051SY",
        "meta_epoch": "2025-12-06T20:19:25.547808",
        "meta_mean_motion": 14.78448907,
        "meta_eccentricity": 0.00071808,
        "meta_inclination": 86.3929,
        "meta_ra_of_asc_node": 18.7802,
        "meta_arg_of_pericenter": 219.4527,
        "meta_mean_anomaly": 140.6171,
        "meta_ephemeris_type": 0,
        "meta_classification_type": "U",
        "meta_norad_cat_id": 35848,
        "meta_element_set_no": 999,
        "meta_rev_at_epoch": 66603,
        "meta_bstar": 0.0027695976,
        "meta_mean_motion_dot": 0.0002026,
        "meta_mean_motion_ddot": 0,
        "tle_line1": "1 35848U 97051SY  25340.84682347  .00020260  00000+0  27696-2 0  9997",
        "tle_line2": "2 35848  86.3929  18.7802 0007180 219.4527 140.6171 14.78448907666032"
      },
      "geometry": {
        "type": "Point",
        "coordinates": [
          -163.39089033754306,
          13.232006314499278
        ]
      }
    },
    {
      "type": "Feature",
      "properties": {
        "norad_id": 35850,
        "name": "IRIDIUM 33 DEB",
        "group": "iridium-33-debris",
        "lat": 49.95213049629287,
        "lon": 161.2315851944625,
        "alt_km": 626.6614612179483,
        "timestamp": "2025-12-09T18:55:17.617336+00:00",
        "meta_object_name": "IRIDIUM 33 DEB",
        "meta_object_id": "1997-051TA",
        "meta_epoch": "2025-12-06T07:30:15.621984",
        "meta_mean_motion": 14.78601393,
        "meta_eccentricity": 0.00083892,
        "meta_inclination": 86.3487,
        "meta_ra_of_asc_node": 347.1693,
        "meta_arg_of_pericenter": 210.267,
        "meta_mean_anomaly": 149.8067,
        "meta_ephemeris_type": 0,
        "meta_classification_type": "U",
        "meta_norad_cat_id": 35850,
        "meta_element_set_no": 999,
        "meta_rev_at_epoch": 71262,
        "meta_bstar": 0.0028291764,
        "meta_mean_motion_dot": 0.00020775,
        "meta_mean_motion_ddot": 0,
        "tle_line1": "1 35850U 97051TA  25340.31268081  .00020775  00000+0  28292-2 0  9991",
        "tle_line2": "2 35850  86.3487 347.1693 0008389 210.2670 149.8067 14.78601393712623"
      },
      "geometry": {
        "type": "Point",
        "coordinates": [
          161.2315851944625,
          49.95213049629287
        ]
      }
    }
  ]
}